HAWK-2A                 
1 47505U 21006CW  26068.67946547  .00008113  00000+0  25431-3 0  9990
2 47505  97.2459 115.6184 0006450 187.1463 172.9689 15.33304498284242
STARLINK-34352          
1 64257U 25120B   26068.41595669  .00023495  00000+0  80299-3 0  9994
2 64257  53.1582 118.0066 0001349  71.6740 288.4407 15.30195099 43826
